{
"type": "FeatureCollection",
"name": "bounds",
"crs": { "type": "name", "properties": { "name": "urn:ogc:def:crs:EPSG::3857" } },
"features": [
{ "type": "Feature", "properties": { "id": null }, "geometry": { "type": "MultiPolygon", "coordinates": [ [ [ [ 4042564.727994090877473, 6447674.909882405772805 ], [ 4042564.727994090877473, 6452107.660265476442873 ], [ 4049209.930780747439712, 6452107.660265476442873 ], [ 4049209.930780747439712, 6447674.909882405772805 ], [ 4042564.727994090877473, 6447674.909882405772805 ] ] ] ] } }
]
}
