{
"type": "FeatureCollection",
"name": "traj",
"crs": { "type": "name", "properties": { "name": "urn:ogc:def:crs:EPSG::3857" } },
"features": [
{ "type": "Feature", "properties": { "id": null }, "geometry": { "type": "MultiLineString", "coordinates": [ [ [ 4047821.263846581801772, 6449142.032575564458966 ], [ 4047839.54062219383195, 6449154.734085583128035 ], [ 4047857.594351750332862, 6449167.750680091790855 ], [ 4047875.419603930786252, 6449181.078443153761327 ], [ 4047893.011016150005162, 6449194.713365215808153 ], [ 4047910.363296172115952, 6449208.651344321668148 ], [ 4047927.47122370172292, 6449222.888187340460718 ], [ 4047944.329651955515146, 6449237.419611232355237 ], [ 4047960.933509209658951, 6449252.241244333796203 ], [ 4047977.277800325769931, 6449267.348627675324678 ], [ 4047993.357608254998922, 6449282.73721631988883 ], [ 4048009.168095514643937, 6449298.402380734682083 ], [ 4048024.704505645669997, 6449314.339408178813756 ], [ 4048039.962164642754942, 6449330.543504124507308 ], [ 4048054.936482361517847, 6449347.009793699719012 ], [ 4048069.622953897807747, 6449363.733323152177036 ], [ 4048084.017160942777991, 6449380.709061340428889 ], [ 4048098.11477311514318, 6449397.931901250034571 ], [ 4048111.911549259908497, 6449415.396661527454853 ], [ 4048125.403338727541268, 6449433.098088037222624 ], [ 4048138.586082620546222, 6449451.030855447053909 ], [ 4048151.455815014895052, 6449469.189568825997412 ], [ 4048164.008664155378938, 6449487.56876527145505 ], [ 4048176.240853616502136, 6449506.162915548309684 ], [ 4048188.148703441489488, 6449524.966425754129887 ], [ 4048199.728631249628961, 6449543.973639002069831 ], [ 4048210.977153311017901, 6449563.178837125189602 ], [ 4048221.890885597560555, 6449582.576242391951382 ], [ 4048232.466544800437987, 6449602.160019247792661 ], [ 4048242.700949316844344, 6449621.924276069737971 ], [ 4048252.591020207386464, 6449641.863066938705742 ], [ 4048262.133782123215497, 6449661.97039342764765 ], [ 4048271.326364200096577, 6449682.240206407383084 ], [ 4048280.16600092407316, 6449702.666407868266106 ], [ 4048288.650032959878445, 6449723.242852749302983 ], [ 4048296.775907954666764, 6449743.963350790552795 ], [ 4048304.541181303560734, 6449764.821668395772576 ], [ 4048311.943516885861754, 6449785.811530507169664 ], [ 4048318.980687767732888, 6449806.926622491329908 ], [ 4048325.650576873216778, 6449828.160592040978372 ], [ 4048331.951177618931979, 6449849.507051086053252 ], [ 4048337.880594518966973, 6449870.959577714093029 ], [ 4048343.437043755780905, 6449892.511718103662133 ], [ 4048348.618853716179729, 6449914.156988466158509 ], [ 4048353.424465493764728, 6449935.888876993209124 ], [ 4048357.852433358784765, 6449957.70084581989795 ], [ 4048361.901425191666931, 6449979.586332989856601 ], [ 4048365.570222886279225, 6450001.538754427805543 ], [ 4048368.85772271361202, 6450023.551505923271179 ], [ 4048371.762935656122863, 6450045.617965115234256 ], [ 4048374.284987702965736, 6450067.731493485160172 ], [ 4048376.423120115417987, 6450089.885438355617225 ], [ 4048378.176689653191715, 6450112.073134887032211 ], [ 4048379.545168768614531, 6450134.287908089347184 ], [ 4048380.528145765885711, 6450156.523074824362993 ], [ 4048381.125324924476445, 6450178.771945820190012 ], [ 4048381.336526587139815, 6450201.027827680110931 ], [ 4048381.161687216255814, 6450223.284024900756776 ], [ 4048380.600859410595149, 6450245.533841880969703 ], [ 4048379.654211890883744, 6450267.770584942772985 ], [ 4048378.322029447648674, 6450289.987564338371158 ], [ 4048376.604712858330458, 6450312.178096266463399 ], [ 4048374.502778763882816, 6450334.33550488203764 ], [ 4048372.016859513707459, 6450356.453124306164682 ], [ 4048369.147702977526933, 6450378.524300629273057 ], [ 4048365.896172317676246, 6450400.542393914423883 ], [ 4048362.263245731592178, 6450422.50078019220382 ], [ 4048358.250016155652702, 6450444.392853458411992 ], [ 4048353.857690939214081, 6450466.212027656845748 ], [ 4048349.087591477204114, 6450487.95173866301775 ], [ 4048343.941152816172689, 6450509.605446258559823 ], [ 4048338.419923221692443, 6450531.166636097244918 ], [ 4048332.525563710834831, 6450552.628821668215096 ], [ 4048326.259847555775195, 6450573.98554624337703 ], [ 4048319.624659745953977, 6450595.230384822003543 ], [ 4048312.621996426023543, 6450616.356946065090597 ], [ 4048305.253964290488511, 6450637.358874213881791 ], [ 4048297.522779953666031, 6450658.229851005598903 ], [ 4048289.430769280064851, 6450678.963597574271262 ], [ 4048280.98036668729037, 6450699.553876337595284 ], [ 4048272.17411441123113, 6450719.994492873549461 ], [ 4048263.014661742839962, 6450740.279297785833478 ], [ 4048253.504764229990542, 6450760.402188552543521 ], [ 4048243.647282849997282, 6450780.357111362740397 ], [ 4048233.445183147210628, 6450800.138062936253846 ], [ 4048222.901534342207015, 6450819.739092332310975 ], [ 4048212.019508407916874, 6450839.154302737675607 ], [ 4048200.802379114553332, 6450858.377853240817785 ], [ 4048189.253521046601236, 6450877.403960589319468 ], [ 4048177.376408585347235, 6450896.226900930516422 ], [ 4048165.174614865798503, 6450914.841011533513665 ], [ 4048152.651810700073838, 6450933.240692490711808 ], [ 4048139.811763474252075, 6450951.420408406294882 ], [ 4048126.658336014021188, 6450969.374690055847168 ], [ 4048113.19548542285338, 6450987.09813603758812 ], [ 4048099.427261892706156, 6451004.58541439473629 ], [ 4048085.357807483058423, 6451021.831264218315482 ], [ 4048070.991354877594858, 6451038.83049723226577 ], [ 4048056.332226109225303, 6451055.577999351546168 ], [ 4048041.384831259492785, 6451072.068732226267457 ], [ 4048026.153667132835835, 6451088.297734748572111 ], [ 4048010.64331590430811, 6451104.260124552994967 ], [ 4047994.858443738892674, 6451119.951099482364953 ], [ 4047978.803799389861524, 6451135.365939032286406 ], [ 4047962.484212768264115, 6451150.50000576954335 ], [ 4047914.039021624717861, 6451181.108395638875663 ], [ 4047865.073783712461591, 6451210.877768347971141 ], [ 4047815.60302838915959, 6451239.799290491268039 ], [ 4047765.641435013152659, 6451267.864380241371691 ], [ 4047715.203828589525074, 6451295.06470990087837 ], [ 4047664.305175368674099, 6451321.392208369448781 ], [ 4047612.960578407160938, 6451346.839063541963696 ], [ 4047561.185273084323853, 6451371.397724622860551 ], [ 4047508.994622583966702, 6451395.060904368758202 ], [ 4047456.404113334603608, 6451417.821581252850592 ], [ 4047403.429350412916392, 6451439.673001543618739 ], [ 4047350.086052915081382, 6451460.608681312762201 ], [ 4047296.390049292240292, 6451480.622408357448876 ], [ 4047242.357272651977837, 6451499.708244045265019 ], [ 4047188.003756033722311, 6451517.860525073483586 ], [ 4047133.345627647358924, 6451535.073865151032805 ], [ 4047078.399106091354042, 6451551.343156599439681 ], [ 4047023.180495537351817, 6451566.663571862503886 ], [ 4046967.706180894747376, 6451581.030564944259822 ], [ 4046911.992622945457697, 6451594.43987275660038 ], [ 4046856.056353463791311, 6451606.887516381219029 ], [ 4046799.913970307447016, 6451618.369802253320813 ], [ 4046743.582132494542748, 6451628.883323257789016 ], [ 4046687.077555258292705, 6451638.424959737807512 ], [ 4046630.417005090974271, 6451646.991880423389375 ], [ 4046573.617294763680547, 6451654.581543268635869 ], [ 4046516.695278342813253, 6451661.191696207039058 ], [ 4046459.66784618422389, 6451666.820377822965384 ], [ 4046402.551919924560934, 6451671.465917928144336 ], [ 4046345.364447460044175, 6451675.126938059926033 ], [ 4046288.122397914528847, 6451677.802351891063154 ], [ 4046230.842756608035415, 6451679.49136555287987 ], [ 4046173.542520015034825, 6451680.193477866239846 ], [ 4046116.23869072040543, 6451679.908480496145785 ], [ 4046058.948272375855595, 6451678.636458007618785 ], [ 4046001.688264652621001, 6451676.377787846140563 ], [ 4045944.475658199749887, 6451673.133140223100781 ], [ 4045887.327429600059986, 6451668.903477914631367 ], [ 4045830.260536334011704, 6451663.690055982209742 ], [ 4045773.291911746840924, 6451657.494421392679214 ], [ 4045716.438460025470704, 6451650.318412563763559 ], [ 4045659.717051181476563, 6451642.164158820174634 ], [ 4045603.144516046624631, 6451633.034079756587744 ], [ 4045546.737641275860369, 6451622.930884522385895 ], [ 4045490.513164369389415, 6451611.857571020722389 ], [ 4045434.487768704537302, 6451599.817425011657178 ], [ 4045378.67807858530432, 6451586.814019144512713 ], [ 4045323.100654310546815, 6451572.85121189430356 ], [ 4045267.771987258456647, 6451557.933146417140961 ], [ 4045212.708494994789362, 6451542.064249319955707 ], [ 4045157.926516400184482, 6451525.249229351058602 ], [ 4045103.442306822165847, 6451507.493075996637344 ], [ 4045049.272033251356333, 6451488.801058003678918 ], [ 4044995.431769526097924, 6451469.178721820004284 ], [ 4044941.93749156082049, 6451448.631889940239489 ], [ 4044904.683957951609045, 6451436.513604884967208 ], [ 4044867.643326797056943, 6451423.759380377829075 ], [ 4044830.826453069224954, 6451410.372954118996859 ], [ 4044794.244126165285707, 6451396.358249078504741 ], [ 4044757.907066748477519, 6451381.719372346065938 ], [ 4044721.82592360349372, 6451366.460613928735256 ], [ 4044686.011270518414676, 6451350.586445494554937 ], [ 4044650.473603184334934, 6451334.101519060321152 ], [ 4044615.223336120601743, 6451317.010665629059076 ], [ 4044580.270799621473998, 6451299.318893774412572 ], [ 4044545.626236730255187, 6451281.031388172879815 ], [ 4044511.299800236243755, 6451262.153508082032204 ], [ 4044477.301549700088799, 6451242.690785775892437 ], [ 4044443.641448506619781, 6451222.648924916982651 ], [ 4044410.329360942356288, 6451202.033798887394369 ], [ 4044377.375049307476729, 6451180.85144907142967 ], [ 4044344.788171053864062, 6451159.108083076775074 ], [ 4044312.578275954350829, 6451136.810072924941778 ], [ 4044280.754803305026144, 6451113.963953174650669 ], [ 4044249.327079159207642, 6451090.57641901448369 ], [ 4044218.304313592612743, 6451066.65432429779321 ], [ 4044187.695598006248474, 6451042.204679530113935 ], [ 4044157.509902461431921, 6451017.234649823978543 ], [ 4044127.7560730506666, 6450991.751552788540721 ], [ 4044098.4428293062374, 6450965.762856394983828 ], [ 4044069.578761643264443, 6450939.276176779530942 ], [ 4044041.17232884420082, 6450912.299276018515229 ], [ 4044013.231855577789247, 6450884.840059846639633 ], [ 4043985.765529962256551, 6450856.906575348228216 ], [ 4043958.781401162501425, 6450828.507008590735495 ], [ 4043932.287377034313977, 6450799.649682232178748 ], [ 4043906.291221803519875, 6450770.343053079210222 ], [ 4043880.800553794950247, 6450740.595709608867764 ], [ 4043855.822843195404857, 6450710.416369452141225 ], [ 4043831.365409868303686, 6450679.813876839354634 ], [ 4043807.43542120559141, 6450648.797200008295476 ], [ 4043784.03989002853632, 6450617.375428574159741 ], [ 4043761.18567253369838, 6450585.557770870625973 ], [ 4043738.87946628080681, 6450553.353551245294511 ], [ 4043717.127808233257383, 6450520.772207330912352 ], [ 4043695.937072840053588, 6450487.823287279345095 ], [ 4043675.313470168504864, 6450454.516446962021291 ], [ 4043655.263044085353613, 6450420.861447140574455 ], [ 4043633.421505713835359, 6450381.711801571771502 ], [ 4043612.257630759850144, 6450342.191706133075058 ], [ 4043591.777700322214514, 6450302.312889752909541 ], [ 4043571.987792515195906, 6450262.087187825702131 ], [ 4043552.893780666403472, 6450221.526538692414761 ], [ 4043534.501331571023911, 6450180.642980104312301 ], [ 4043516.81590381404385, 6450139.448645643889904 ], [ 4043499.842746145557612, 6450097.955761129036546 ], [ 4043483.586895926855505, 6450056.176640982739627 ], [ 4043468.053177633322775, 6450014.123684575781226 ], [ 4043453.246201422996819, 6449971.809372551739216 ], [ 4043439.170361768919975, 6449929.246263118460774 ], [ 4043425.829836154356599, 6449886.446988323703408 ], [ 4043413.22858383320272, 6449843.424250306561589 ], [ 4043401.370344655122608, 6449800.190817523747683 ], [ 4043390.258637954480946, 6449756.759520965628326 ], [ 4043379.896761508192867, 6449713.143250341527164 ], [ 4043370.287790554109961, 6449669.354950263164937 ], [ 4043361.43457688158378, 6449625.407616393640637 ], [ 4043353.339747981633991, 6449581.314291596412659 ], [ 4043346.005706269759685, 6449537.088062062859535 ], [ 4043339.434628371614963, 6449492.742053428664804 ], [ 4043333.628464478068054, 6449448.289426876232028 ], [ 4043328.588937765453011, 6449403.743375231511891 ], [ 4043324.317543883342296, 6449359.117119048722088 ], [ 4043320.815550514031202, 6449314.423902683891356 ], [ 4043318.083996992558241, 6449269.676990366540849 ], [ 4043316.12369400030002, 6449224.889662262052298 ], [ 4043314.93522332329303, 6449180.075210530310869 ], [ 4043314.518937680870295, 6449135.246935381554067 ], [ 4043314.874960620421916, 6449090.418141127564013 ], [ 4043316.003186478745192, 6449045.602132235653698 ], [ 4043317.903280417900532, 6449000.812209377996624 ], [ 4043317.946259472519159, 6448982.312685304321349 ], [ 4043318.311394715216011, 6448963.816715084016323 ], [ 4043318.998575403355062, 6448945.329908414743841 ], [ 4043320.007593118585646, 6448926.85787221416831 ], [ 4043321.338141834363341, 6448908.406208922155201 ], [ 4043322.989818003494292, 6448889.980514797382057 ], [ 4043324.962120685260743, 6448871.586378225125372 ], [ 4043327.254451693035662, 6448853.229378015734255 ], [ 4043329.866115779615939, 6448834.915081718936563 ], [ 4043332.796320845372975, 6448816.649043932557106 ], [ 4043336.044178179930896, 6448798.436804617755115 ], [ 4043339.608702730853111, 6448780.283887417986989 ], [ 4043343.488813403062522, 6448762.195797985419631 ], [ 4043347.68333338573575, 6448744.178022311069071 ], [ 4043352.190990510862321, 6448726.236025059595704 ], [ 4043357.010417637880892, 6448708.375247912481427 ], [ 4043362.140153068117797, 6448690.60110791772604 ], [ 4043367.578640989027917, 6448672.918995846994221 ], [ 4043373.324231944978237, 6448655.334274561144412 ], [ 4043379.375183339230716, 6448637.852277382276952 ], [ 4043385.729659960605204, 6448620.478306477889419 ], [ 4043392.385734540876001, 6448603.217631249688566 ], [ 4043399.341388339176774, 6448586.075486740097404 ], [ 4043406.59451175481081, 6448569.057072041556239 ], [ 4043414.142904967069626, 6448552.167548719793558 ], [ 4043421.984278600197285, 6448535.412039247341454 ], [ 4043430.11625442141667, 6448518.795625452883542 ], [ 4043438.536366058979183, 6448502.323346978053451 ], [ 4043447.242059752810746, 6448486.000199750065804 ], [ 4043456.230695127043873, 6448469.831134463660419 ], [ 4043465.499545991886407, 6448453.821055082604289 ], [ 4043475.045801169704646, 6448437.974817351438105 ], [ 4043484.86656534858048, 6448422.29722732398659 ], [ 4043494.958859959617257, 6448406.793039902113378 ], [ 4043505.319624080788344, 6448391.466957395896316 ], [ 4043515.94571536546573, 6448376.323628100566566 ], [ 4043526.833910994231701, 6448361.367644880898297 ], [ 4043537.980908654164523, 6448346.603543780744076 ], [ 4043549.383327539544553, 6448332.03580264840275 ], [ 4043561.037709376774728, 6448317.66883977688849 ], [ 4043572.94051947304979, 6448303.507012566551566 ], [ 4043585.088147790636867, 6448289.55461619887501 ], [ 4043597.47691003838554, 6448275.81588233821094 ], [ 4043610.103048792574555, 6448262.294977845624089 ], [ 4043622.962734633591026, 6448248.996003516018391 ], [ 4043636.052067309152335, 6448235.922992836683989 ], [ 4043649.367076917085797, 6448223.079910757020116 ], [ 4043662.903725107666105, 6448210.470652496442199 ], [ 4043676.657906311564147, 6448198.099042352288961 ], [ 4043690.625448981299996, 6448185.968832547776401 ], [ 4043704.802116860169917, 6448174.083702090196311 ], [ 4043719.183610264211893, 6448162.447255657054484 ], [ 4043733.765567387454212, 6448151.063022498972714 ], [ 4043748.543565624393523, 6448139.934455374255776 ], [ 4043763.51312291296199, 6448129.064929500222206 ], [ 4043778.66969909099862, 6448118.457741527818143 ], [ 4043794.008697275537997, 6448108.116108540445566 ], [ 4043809.525465256068856, 6448098.043167085386813 ], [ 4043825.215296906419098, 6448088.241972212679684 ], [ 4043841.073433610145003, 6448078.715496557764709 ], [ 4043857.095065706875175, 6448069.466629431582987 ], [ 4043873.275333947036415, 6448060.498175952583551 ], [ 4043889.60933096986264, 6448051.812856189906597 ], [ 4043906.09210278885439, 6448043.41330433730036 ], [ 4043922.718650294467807, 6448035.30206792242825 ], [ 4043939.483930771704763, 6448027.481607025489211 ], [ 4043956.382859429810196, 6448019.954293536953628 ], [ 4043973.410310941748321, 6448012.722410438582301 ], [ 4043990.561121000908315, 6448005.788151109591126 ], [ 4044007.830087887588888, 6447999.153618661686778 ], [ 4044025.211974045261741, 6447992.820825302042067 ], [ 4044042.701507670339197, 6447986.791691723279655 ], [ 4044060.293384309858084, 6447981.068046517670155 ], [ 4044077.982268471736461, 6447975.651625627651811 ], [ 4044095.76279524108395, 6447970.544071815907955 ], [ 4044113.629571909084916, 6447965.74693416710943 ], [ 4044131.577179608400911, 6447961.261667619459331 ], [ 4044149.600174955558032, 6447957.089632522314787 ], [ 4044167.693091703113168, 6447953.232094224542379 ], [ 4044185.850442395545542, 6447949.690222691744566 ], [ 4044204.066720037255436, 6447946.465092147700489 ], [ 4044222.33639975823462, 6447943.55768075119704 ], [ 4044240.653940493240952, 6447940.968870300799608 ], [ 4044259.013786661438644, 6447938.699445964768529 ], [ 4044277.410369850229472, 6447936.750096041709185 ], [ 4044295.838110504671931, 6447935.121411757543683 ], [ 4044314.291419621556997, 6447933.813887081108987 ], [ 4044378.405378464143723, 6447938.446989514864981 ], [ 4044442.428950315341353, 6447944.195694070309401 ], [ 4044506.342724843882024, 6447951.058257886208594 ], [ 4044570.127325007226318, 6447959.032600406557322 ], [ 4044633.76341292494908, 6447968.116304011084139 ], [ 4044697.231695741415024, 6447978.306614750996232 ], [ 4044760.512931475415826, 6447989.600443181581795 ], [ 4044823.58793485397473, 6448001.994365298189223 ], [ 4044886.437583128456026, 6448015.484623576514423 ], [ 4044949.04282187204808, 6448030.067128111608326 ], [ 4045011.384670756291598, 6448045.737457856535912 ], [ 4045073.444229307118803, 6448062.490861961618066 ], [ 4045135.202682632952929, 6448080.322261217981577 ], [ 4045196.641307129524648, 6448099.226249596104026 ], [ 4045257.741476157214493, 6448119.197095884010196 ], [ 4045318.484665686730295, 6448140.228745424188673 ], [ 4045378.852459916844964, 6448162.314821952953935 ], [ 4045438.82655685627833, 6448185.448629528284073 ], [ 4045498.388773872982711, 6448209.623154563829303 ], [ 4045557.521053206175566, 6448234.831067955121398 ], [ 4045616.205467441584915, 6448261.064727297052741 ], [ 4045674.424224946182221, 6448288.31617920845747 ], [ 4045732.159675262402743, 6448316.577161735855043 ], [ 4045789.394314459525049, 6448345.839106862433255 ], [ 4045846.110790439415723, 6448376.09314310643822 ], [ 4045902.291908198501915, 6448407.330098207108676 ], [ 4045957.920635040383786, 6448439.540501908399165 ], [ 4046012.980105739086866, 6448472.714588829316199 ], [ 4046067.453627653419971, 6448506.842301423661411 ], [ 4046121.324685786385089, 6448541.913293030112982 ], [ 4046174.576947792898864, 6448577.916931009851396 ], [ 4046227.194268932100385, 6448614.842299969866872 ], [ 4046279.160696960054338, 6448652.678205068223178 ], [ 4046330.460476967971772, 6448691.413175415247679 ], [ 4046381.078056157100946, 6448731.035467545501888 ], [ 4046430.998088555876166, 6448771.53306898009032 ], [ 4046480.205439670477062, 6448812.893701869063079 ], [ 4046528.685191073920578, 6448855.104826711118221 ], [ 4046576.42264492996037, 6448898.153646160848439 ], [ 4046623.403328447137028, 6448942.02710890211165 ], [ 4046669.612998268567026, 6448986.711913608014584 ], [ 4046715.037644789088517, 6449032.194512974470854 ] ] ] } }
]
}
