{
"type": "FeatureCollection",
"name": "bounds",
"crs": { "type": "name", "properties": { "name": "urn:ogc:def:crs:EPSG::3857" } },
"features": [
{ "type": "Feature", "properties": { "id": null }, "geometry": { "type": "MultiPolygon", "coordinates": [ [ [ [ 3436458.439491170924157, 6501697.204401703551412 ], [ 3436458.439491170924157, 6509447.860818038694561 ], [ 3441670.510657219681889, 6509447.860818038694561 ], [ 3441670.510657219681889, 6501697.204401703551412 ], [ 3436458.439491170924157, 6501697.204401703551412 ] ] ] ] } }
]
}
