{
"type": "FeatureCollection",
"name": "traj",
"crs": { "type": "name", "properties": { "name": "urn:ogc:def:crs:EPSG::3857" } },
"features": [
{ "type": "Feature", "properties": { "id": null }, "geometry": { "type": "MultiLineString", "coordinates": [ [ [ 3438960.332118854857981, 6508734.120299716480076 ], [ 3438904.749934569466859, 6508678.321806042455137 ], [ 3438850.138789824210107, 6508621.572585995309055 ], [ 3438796.514944202266634, 6508563.889535738155246 ], [ 3438743.894363335333765, 6508505.28982946369797 ], [ 3438692.292714149225503, 6508445.790914284065366 ], [ 3438641.725360197946429, 6508385.410505038686097 ], [ 3438592.207357092760503, 6508324.166579015552998 ], [ 3438543.753448016010225, 6508262.077370601706207 ], [ 3438496.378059335052967, 6508199.161365852691233 ], [ 3438450.095296303741634, 6508135.437296989373863 ], [ 3438404.918938864953816, 6508070.924136822111905 ], [ 3438360.862437547184527, 6508005.641093097627163 ], [ 3438317.938909459859133, 6507939.607602785341442 ], [ 3438276.161134388763458, 6507872.843326287344098 ], [ 3438235.541550988797098, 6507805.368141584098339 ], [ 3438196.092253082897514, 6507737.202138319611549 ], [ 3438157.824986060615629, 6507668.36561181768775 ], [ 3438120.751143380999565, 6507598.879057037644088 ], [ 3438084.881763179320842, 6507528.763162475079298 ], [ 3438050.227524983230978, 6507458.038804003037512 ], [ 3438016.798746529966593, 6507386.727038652636111 ], [ 3437984.60538069717586, 6507314.849098347127438 ], [ 3437953.657012537587434, 6507242.426383577287197 ], [ 3437923.96285642683506, 6507169.480457034893334 ], [ 3437895.531753318849951, 6507096.03303718753159 ], [ 3437868.372168113477528, 6507022.105991813354194 ], [ 3437842.492187137715518, 6506947.721331492997706 ], [ 3437817.899515735916793, 6506872.901203054003417 ], [ 3437794.601475978270173, 6506797.667882977984846 ], [ 3437772.605004478711635, 6506722.043770765885711 ], [ 3437751.916650329716504, 6506646.05138227250427 ], [ 3437732.542573153506964, 6506569.713343000970781 ], [ 3437714.488541268277913, 6506493.052381365559995 ], [ 3437697.759929968975484, 6506416.091321924701333 ], [ 3437682.361719929147512, 6506338.8530785869807 ], [ 3437668.298495715484023, 6506261.360647789202631 ], [ 3437655.574444426223636, 6506183.637101645581424 ], [ 3437644.193354440853, 6506105.705581084825099 ], [ 3437634.158614294603467, 6506027.589288952760398 ], [ 3437625.473211668431759, 6505949.311483110301197 ], [ 3437618.139732501003891, 6505870.895469506271183 ], [ 3437612.16036021662876, 6505792.364595238119364 ], [ 3437607.536875076126307, 6505713.742241600528359 ], [ 3437604.270653647836298, 6505635.051817126572132 ], [ 3437602.362668396439403, 6505556.31675061583519 ], [ 3437601.81348739285022, 6505477.560484156943858 ], [ 3437602.623274147044867, 6505398.806466153822839 ], [ 3437604.791787558700889, 6505320.078144337981939 ], [ 3437608.318381987512112, 6505241.398958793841302 ], [ 3437613.202007447369397, 6505162.792334971949458 ], [ 3437619.441209917422384, 6505084.28167672175914 ], [ 3437627.034131777007133, 6505005.890359320677817 ], [ 3437635.978512356523424, 6504927.641722512431443 ], [ 3437646.271688611246645, 6504849.559063562192023 ], [ 3437657.91059591434896, 6504771.66563031449914 ], [ 3437670.891768970526755, 6504693.984614279121161 ], [ 3437685.211342845577747, 6504616.539143718779087 ], [ 3437700.865054117981344, 6504539.352276767604053 ], [ 3437717.848242149222642, 6504462.446994565427303 ], [ 3437736.155850470066071, 6504385.846194414421916 ], [ 3437738.972620786633343, 6504375.925078459084034 ], [ 3437741.960739219561219, 6504366.054218059405684 ], [ 3437745.119309980422258, 6504356.236572335474193 ], [ 3437748.447386180981994, 6504346.47508445661515 ], [ 3437751.943970119114965, 6504336.772680755704641 ], [ 3437755.608013576362282, 6504327.132269854657352 ], [ 3437759.438418133184314, 6504317.556741788983345 ], [ 3437763.434035497251898, 6504308.048967144452035 ], [ 3437767.593667848035693, 6504298.611796195618808 ], [ 3437771.916068196296692, 6504289.248058051802218 ], [ 3437776.399940757546574, 6504279.960559805855155 ], [ 3437781.043941340874881, 6504270.752085697837174 ], [ 3437785.846677750814706, 6504261.625396277755499 ], [ 3437790.806710206437856, 6504252.583227574825287 ], [ 3437795.922551771625876, 6504243.628290283493698 ], [ 3437801.192668801173568, 6504234.763268946669996 ], [ 3437806.615481400396675, 6504225.990821151994169 ], [ 3437812.1893639001064, 6504217.31357673369348 ], [ 3437817.912645341828465, 6504208.734136988408864 ], [ 3437823.783609979320318, 6504200.255073889158666 ], [ 3437829.800497794989496, 6504191.878929321654141 ], [ 3437835.961505024693906, 6504183.608214315026999 ], [ 3437842.264784699305892, 6504175.445408293046057 ], [ 3437848.708447199314833, 6504167.392958330921829 ], [ 3437855.290560821536928, 6504159.453278421424329 ], [ 3437862.009152356535196, 6504151.628748748451471 ], [ 3437868.862207680474967, 6504143.921714978292584 ], [ 3437875.847672360483557, 6504136.334487552754581 ], [ 3437882.963452269788831, 6504128.869340997189283 ], [ 3437890.207414214033633, 6504121.528513240627944 ], [ 3437897.577386572491378, 6504114.314204940572381 ], [ 3437905.071159949526191, 6504107.228578830137849 ], [ 3437912.686487834434956, 6504100.273759061470628 ], [ 3437920.421087278053164, 6504093.451830576173961 ], [ 3437928.272639574483037, 6504086.764838476665318 ], [ 3437936.238790957257152, 6504080.214787411503494 ], [ 3437944.317153305280954, 6504073.803640979342163 ], [ 3437952.505304859019816, 6504067.533321135677397 ], [ 3437960.800790945068002, 6504061.405707619152963 ], [ 3437969.201124713756144, 6504055.422637388110161 ], [ 3437977.70378788234666, 6504049.585904068313539 ], [ 3437986.306231493130326, 6504043.897257416509092 ], [ 3437995.005876674782485, 6504038.358402795158327 ], [ 3438003.800115416757762, 6504032.97100066114217 ], [ 3438012.686311351601034, 6504027.736666069366038 ], [ 3438021.661800543311983, 6504022.656968186609447 ], [ 3438030.723892288748175, 6504017.733429824002087 ], [ 3438039.86986992135644, 6504012.967526976950467 ], [ 3438049.096991627942771, 6504008.360688383691013 ], [ 3438058.402491268701851, 6504003.914295099675655 ], [ 3438067.783579208888113, 6503999.629680080339313 ], [ 3438077.237443152349442, 6503995.508127781562507 ], [ 3438086.76124898577109, 6503991.550873777829111 ], [ 3438096.352141629904509, 6503987.759104388765991 ], [ 3438106.007245892193168, 6503984.133956324309111 ], [ 3438115.723667331505567, 6503980.676516343839467 ], [ 3438125.498493125196546, 6503977.387820932082832 ], [ 3438135.328792940825224, 6503974.268855984322727 ], [ 3438145.211619816254824, 6503971.320556514896452 ], [ 3438155.144011043012142, 6503968.543806376866996 ], [ 3438165.122989052906632, 6503965.93943799380213 ], [ 3438175.145562313962728, 6503963.508232112042606 ], [ 3438185.208726222626865, 6503961.250917566940188 ], [ 3438195.309464008081704, 6503959.168171063996851 ], [ 3438205.444747635629028, 6503957.260616977699101 ], [ 3438215.611538714263588, 6503955.528827160596848 ], [ 3438225.806789407040924, 6503953.973320773802698 ], [ 3438236.027443346101791, 6503952.594564134255052 ], [ 3438246.270436546765268, 6503951.392970568500459 ], [ 3438256.532698329072446, 6503950.368900296278298 ], [ 3438266.811152235139161, 6503949.522660316899419 ], [ 3438277.102716954424977, 6503948.854504317976534 ], [ 3438287.404307244811207, 6503948.364632602781057 ], [ 3438297.712834858801216, 6503948.053192025981843 ], [ 3438308.025209470186383, 6503947.920275952666998 ], [ 3438318.338339598849416, 6503947.965924229472876 ], [ 3438328.649133536964655, 6503948.190123170614243 ], [ 3438338.954500279389322, 6503948.592805566266179 ], [ 3438349.251350446604192, 6503949.173850697465241 ], [ 3438359.53659721231088, 6503949.933084378018975 ], [ 3438369.807157228235155, 6503950.870279001072049 ], [ 3438380.059951550327241, 6503951.985153610818088 ], [ 3438390.291906559374183, 6503953.27737398725003 ], [ 3438400.499954883474857, 6503954.746552743017673 ], [ 3438410.681036318186671, 6503956.392249443568289 ], [ 3438420.832098742481321, 6503958.213970735669136 ], [ 3438430.950099035166204, 6503960.211170496419072 ], [ 3438441.032003986183554, 6503962.383249999023974 ], [ 3438451.0747912065126, 6503964.729558089748025 ], [ 3438485.322552854660898, 6503972.516985896043479 ], [ 3438519.42999886488542, 6503980.89763840008527 ], [ 3438553.386854476761073, 6503989.868990955874324 ], [ 3438587.182890294585377, 6503999.428340972401202 ], [ 3438620.80792536912486, 6504009.572808724828064 ], [ 3438654.251830263994634, 6504020.299338225275278 ], [ 3438687.504530108068138, 6504031.60469814017415 ], [ 3438720.556007631123066, 6504043.485482765361667 ], [ 3438753.396306178532541, 6504055.938113051466644 ], [ 3438786.015532714314759, 6504068.958837682381272 ], [ 3438818.403860799502581, 6504082.543734207749367 ], [ 3438850.551533551886678, 6504096.688710219226778 ], [ 3438882.448866586200893, 6504111.389504586346447 ], [ 3438914.086250931024551, 6504126.641688742674887 ], [ 3438945.454155925195664, 6504142.440668014809489 ], [ 3438976.543132084887475, 6504158.781683010049164 ], [ 3439007.343813953921199, 6504175.659811049699783 ], [ 3439037.846922924742103, 6504193.069967649877071 ], [ 3439068.043270031455904, 6504211.00690805632621 ], [ 3439097.923758719582111, 6504229.465228822082281 ], [ 3439127.479387585539371, 6504248.439369437284768 ], [ 3439156.701253090053797, 6504267.923614 ], [ 3439185.580552237574011, 6504287.912092943675816 ], [ 3439340.86217505345121, 6504378.549118601717055 ], [ 3439497.570033414755017, 6504466.697288930416107 ], [ 3439655.664239297155291, 6504552.334166915155947 ], [ 3439673.13810951076448, 6504563.965851440094411 ], [ 3439690.406974077690393, 6504575.899775426834822 ], [ 3439707.465605843812227, 6504588.132326566614211 ], [ 3439724.308841291815042, 6504600.659802161157131 ], [ 3439740.931582103483379, 6504613.478410238400102 ], [ 3439757.328796701971442, 6504626.58427070453763 ], [ 3439773.495521775912493, 6504639.973416514694691 ], [ 3439789.426863780245185, 6504653.641794877126813 ], [ 3439805.118000420741737, 6504667.585268477909267 ], [ 3439820.564182109665126, 6504681.799616735428572 ], [ 3439835.760733405593783, 6504696.280537073500454 ], [ 3439850.703054429031909, 6504711.023646228946745 ], [ 3439865.386622253339738, 6504726.024481575004756 ], [ 3439879.806992275174707, 6504741.278502473607659 ], [ 3439893.959799557924271, 6504756.781091649085283 ], [ 3439907.840760155580938, 6504772.527556586079299 ], [ 3439921.445672407280654, 6504788.51313095074147 ], [ 3439934.770418209955096, 6504804.732976030558348 ], [ 3439947.810964264906943, 6504821.1821822039783 ], [ 3439960.563363298773766, 6504837.855770420283079 ], [ 3439973.023755257483572, 6504854.748693712987006 ], [ 3439985.188368475995958, 6504871.855838722549379 ], [ 3439997.053520818240941, 6504889.172027247026563 ], [ 3440008.615620793774724, 6504906.692017809487879 ], [ 3440019.871168642770499, 6504924.410507241263986 ], [ 3440030.816757397726178, 6504942.322132291272283 ], [ 3440041.449073911644518, 6504960.42147124838084 ], [ 3440051.764899864327163, 6504978.703045580536127 ], [ 3440061.761112733278424, 6504997.161321594379842 ], [ 3440071.434686742257327, 6505015.790712110698223 ], [ 3440080.782693773508072, 6505034.585578156635165 ], [ 3440089.802304257638752, 6505053.540230669081211 ], [ 3440098.490788026247174, 6505072.648932218551636 ], [ 3440106.845515142660588, 6505091.905898748897016 ], [ 3440114.863956694025546, 6505111.305301322601736 ], [ 3440122.543685560114682, 6505130.841267889365554 ], [ 3440129.882377145811915, 6505150.507885060273111 ], [ 3440136.877810084261, 6505170.299199901521206 ], [ 3440143.527866912074387, 6505190.209221731871367 ], [ 3440149.83053470775485, 6505210.231923942454159 ], [ 3440155.783905702177435, 6505230.361245811916888 ], [ 3440161.38617785461247, 6505250.591094349510968 ], [ 3440166.635655401274562, 6505270.915346135385334 ], [ 3440171.530749364290386, 6505291.327849172055721 ], [ 3440176.069978036917746, 6505311.822424751706421 ], [ 3440180.251967428717762, 6505332.392869322560728 ], [ 3440184.075451684184372, 6505353.03295636922121 ], [ 3440187.539273463189602, 6505373.736438293941319 ], [ 3440190.642384293489158, 6505394.49704831186682 ], [ 3440193.383844887372106, 6505415.308502344414592 ], [ 3440195.762825425714254, 6505436.164500922895968 ], [ 3440197.778605808969587, 6505457.058731097728014 ], [ 3440199.430575876031071, 6505477.984868343919516 ], [ 3440200.718235587701201, 6505498.93657847866416 ], [ 3440201.641195180360228, 6505519.907519581727684 ], [ 3440202.199175280053169, 6505540.89134390745312 ], [ 3440202.392006990965456, 6505561.881699813529849 ], [ 3440202.219631944317371, 6505582.872233679518104 ], [ 3440201.682102316524833, 6505603.856591830961406 ], [ 3440200.779580814298242, 6505624.82842246349901 ], [ 3440199.512340623419732, 6505645.781377563253045 ], [ 3440197.880765327718109, 6505666.709114832803607 ], [ 3440195.885348793584853, 6505687.605299603193998 ], [ 3440193.526695017237216, 6505708.46360676176846 ], [ 3440190.805517945438623, 6505729.277722655795515 ], [ 3440187.722641257569194, 6505750.041347013786435 ], [ 3440184.278998117428273, 6505770.748194843530655 ], [ 3440180.475630889181048, 6505791.391998341307044 ], [ 3440176.313690823037177, 6505811.966508786194026 ], [ 3440171.794437706004828, 6505832.465498428791761 ], [ 3440166.919239481911063, 6505852.882762384600937 ], [ 3440161.689571836031973, 6505873.212120501324534 ], [ 3440156.107017748989165, 6505893.44741923827678 ], [ 3440150.173267016652972, 6505913.582533526234329 ], [ 3440143.890115740243345, 6505933.611368618905544 ], [ 3440137.259465781971812, 6505953.527861941605806 ], [ 3440130.283324188552797, 6505973.325984923169017 ], [ 3440122.963802584912628, 6505992.999744824133813 ], [ 3440115.303116533905268, 6506012.543186546303332 ], [ 3440107.303584867622703, 6506031.950394440442324 ], [ 3440098.967628981918097, 6506051.215494093485177 ], [ 3440090.297772108111531, 6506070.332654104568064 ], [ 3440081.296638544648886, 6506089.296087858267128 ], [ 3440071.966952866408974, 6506108.100055266171694 ], [ 3440062.311539098154753, 6506126.73886451125145 ], [ 3440052.333319859113544, 6506145.206873769871891 ], [ 3440042.03531548101455, 6506163.498492915183306 ], [ 3440031.42064309027046, 6506181.60818521399051 ], [ 3440020.492515666875988, 6506199.530469001270831 ], [ 3440009.254241072572768, 6506217.259919338859618 ], [ 3439997.709221046417952, 6506234.791169657371938 ], [ 3439985.860950178001076, 6506252.118913381360471 ], [ 3439973.713014848064631, 6506269.237905534915626 ], [ 3439961.269092143978924, 6506286.142964330501854 ], [ 3439948.532948746345937, 6506302.828972735442221 ], [ 3439935.508439788594842, 6506319.290880022570491 ], [ 3439922.199507689103484, 6506335.523703298531473 ], [ 3439908.610180960502476, 6506351.522529011592269 ], [ 3439894.744572988245636, 6506367.282514439895749 ], [ 3439880.606880785897374, 6506382.798889155499637 ], [ 3439866.201383724808693, 6506398.066956471651793 ], [ 3439851.532442238647491, 6506413.082094859331846 ], [ 3439821.061943669803441, 6506437.230592391453683 ], [ 3439791.014760456513613, 6506461.903816684149206 ], [ 3439761.399927699472755, 6506487.094348573125899 ], [ 3439732.226350492332131, 6506512.794613339006901 ], [ 3439703.502801243681461, 6506538.996882985346019 ], [ 3439675.237917041406035, 6506565.693278567865491 ], [ 3439647.440197053365409, 6506592.875772558152676 ], [ 3439620.117999972775578, 6506620.536191260442138 ], [ 3439593.27954150410369, 6506648.666217266581953 ], [ 3439566.932891893200576, 6506677.25739196036011 ], [ 3439541.085973501205444, 6506706.301118059083819 ], [ 3439515.746558420360088, 6506735.788662199862301 ], [ 3439490.922266139183193, 6506765.711157564073801 ], [ 3439466.620561249088496, 6506796.059606544673443 ], [ 3439442.848751202225685, 6506826.824883451685309 ], [ 3439419.613984112162143, 6506857.997737255878747 ], [ 3439396.923246605321765, 6506889.568794373422861 ], [ 3439374.783361720386893, 6506921.528561477549374 ], [ 3439353.200986855197698, 6506953.867428360506892 ], [ 3439332.182611768133938, 6506986.575670818798244 ], [ 3439311.734556621871889, 6507019.643453581258655 ], [ 3439291.862970087211579, 6507053.060833261348307 ], [ 3439272.57382749253884, 6507086.817761350423098 ], [ 3439253.872929025907069, 6507120.90408723987639 ], [ 3439235.765897992998362, 6507155.309561270289123 ], [ 3439218.258179125841707, 6507190.023837816901505 ], [ 3439201.355036943219602, 6507225.03647839743644 ], [ 3439185.061554171144962, 6507260.336954813450575 ], [ 3439169.382630212232471, 6507295.91465231589973 ], [ 3439154.322979672811925, 6507331.758872794918716 ], [ 3439139.887130945920944, 6507367.858837996609509 ], [ 3439126.079424848780036, 6507404.203692769631743 ], [ 3439112.904013318940997, 6507440.782508320175111 ], [ 3439100.364858163520694, 6507477.584285506047308 ], [ 3439088.465729869436473, 6507514.597958141006529 ], [ 3439077.21020647091791, 6507551.812396321445704 ], [ 3439066.601672470103949, 6507589.216409775428474 ], [ 3439056.643317822366953, 6507626.798751223832369 ], [ 3439047.33813697565347, 6507664.548119768500328 ], [ 3439038.688927970826626, 6507702.453164283186197 ], [ 3439030.698291599750519, 6507740.502486832439899 ], [ 3439023.368630623444915, 6507778.684646096080542 ], [ 3439016.702149049378932, 6507816.988160810433328 ], [ 3439010.700851468835026, 6507855.401513221673667 ], [ 3439005.36654245480895, 6507893.913152545690536 ], [ 3439000.70082601858303, 6507932.511498445644975 ], [ 3438996.705105127301067, 6507971.184944511391222 ], [ 3438993.38058128207922, 6508009.921861751936376 ], [ 3438990.728254158049822, 6508048.710602088831365 ], [ 3438988.74892130214721, 6508087.539501860737801 ], [ 3438987.44317789375782, 6508126.396885331720114 ], [ 3438986.811416566371918, 6508165.271068200469017 ], [ 3438986.853827288839966, 6508204.150361113250256 ], [ 3438987.570397307630628, 6508243.023073181509972 ], [ 3438988.960911153350025, 6508281.877515492029488 ], [ 3438991.024950701743364, 6508320.702004630118608 ], [ 3438993.761895302217454, 6508359.484866184182465 ], [ 3438997.170921963639557, 6508398.214438261464238 ], [ 3439001.251005602069199, 6508436.879074993543327 ], [ 3439006.000919348094612, 6508475.467150036245584 ], [ 3439011.419234916102141, 6508513.967060067690909 ], [ 3439017.504323034547269, 6508552.367228278890252 ], [ 3439024.254353935830295, 6508590.656107851304114 ], [ 3439031.667297904845327, 6508628.822185430675745 ], [ 3439039.740925891324878, 6508666.85398458968848 ], [ 3439048.472810178529471, 6508704.740069275721908 ] ] ] } },
{ "type": "Feature", "properties": { "id": null }, "geometry": { "type": "MultiLineString", "coordinates": [ [ [ 3438754.670505766291171, 6508234.656382216140628 ], [ 3438730.620985764078796, 6508176.869180067442358 ], [ 3438707.581112894229591, 6508118.672063277103007 ], [ 3438685.557870251126587, 6508060.082670653238893 ], [ 3438664.55793279921636, 6508001.118759897537529 ], [ 3438644.587665353901684, 6507941.798202223144472 ], [ 3438625.653120649978518, 6507882.138976939953864 ], [ 3438607.760037507396191, 6507822.159166001714766 ], [ 3438590.913839092478156, 6507761.876948527991772 ], [ 3438575.119631275068969, 6507701.310595294460654 ], [ 3438560.382201078347862, 6507640.478463195264339 ], [ 3438546.706015231553465, 6507579.398989677429199 ], [ 3438534.09521881211549, 6507518.090687154792249 ], [ 3438522.553633993025869, 6507456.572137395851314 ], [ 3438512.084758881945163, 6507394.861985892988741 ], [ 3438502.691766462288797, 6507332.978936211206019 ], [ 3438494.377503631170839, 6507270.941744316369295 ], [ 3438487.144490336067975, 6507208.769212896004319 ], [ 3438480.994918811134994, 6507146.480185654945672 ], [ 3438475.930652914103121, 6507084.093541608192027 ], [ 3438471.953227559104562, 6507021.628189355134964 ], [ 3438469.06384825380519, 6506959.103061351925135 ], [ 3438467.263390732463449, 6506896.537108171731234 ], [ 3438466.55240069096908, 6506833.949292763136327 ], [ 3438466.931093620602041, 6506771.358584696426988 ], [ 3438468.3993547456339, 6506708.783954422920942 ], [ 3438470.956739053595811, 6506646.244367519393563 ], [ 3438474.602471434045583, 6506583.758778941817582 ], [ 3438479.335446911863983, 6506521.34612727817148 ], [ 3438485.154230982530862, 6506459.025329012423754 ], [ 3438492.057060045655817, 6506396.815272787585855 ], [ 3438500.04184194188565, 6506334.734813682734966 ], [ 3438500.764229797758162, 6506324.600466169416904 ], [ 3438501.662454798351973, 6506314.480187735520303 ], [ 3438502.736246183514595, 6506304.377029032446444 ], [ 3438503.985280269291252, 6506294.294035549275577 ], [ 3438505.40918054850772, 6506284.234246698208153 ], [ 3438507.007517801132053, 6506274.200694896280766 ], [ 3438508.779810225125402, 6506264.196404651738703 ], [ 3438510.725523582194, 6506254.224391652271152 ], [ 3438512.844071357045323, 6506244.287661855109036 ], [ 3438515.134814936202019, 6506234.389210583642125 ], [ 3438517.597063798923045, 6506224.53202161937952 ], [ 3438520.230075726751238, 6506214.71906630974263 ], [ 3438523.033057025633752, 6506204.953302664682269 ], [ 3438526.005162766668946, 6506195.237674470990896 ], [ 3438529.145497040357441, 6506185.57511040288955 ], [ 3438532.45311322575435, 6506175.968523136340082 ], [ 3438535.92701427731663, 6506166.420808477327228 ], [ 3438539.566153023391962, 6506156.934844481758773 ], [ 3438543.369432485196739, 6506147.513490594923496 ], [ 3438547.335706203710288, 6506138.159586783498526 ], [ 3438551.463778587989509, 6506128.875952682457864 ], [ 3438555.752405273728073, 6506119.665386745706201 ], [ 3438560.200293500442058, 6506110.530665400438011 ], [ 3438564.806102498900145, 6506101.474542211741209 ], [ 3438569.568443896714598, 6506092.499747053720057 ], [ 3438574.485882136505097, 6506083.608985281549394 ], [ 3438579.556934908498079, 6506074.804936922155321 ], [ 3438584.780073597561568, 6506066.090255862101912 ], [ 3438590.153723743744195, 6506057.46756905131042 ], [ 3438595.676265516318381, 6506048.939475706778467 ], [ 3438601.34603420458734, 6506040.508546532131732 ], [ 3438607.161320716142654, 6506032.177322940900922 ], [ 3438613.120372094679624, 6506023.948316293768585 ], [ 3438619.221392046660185, 6506015.824007136747241 ], [ 3438625.46254148427397, 6506007.806844457983971 ], [ 3438631.841939079575241, 6505999.899244945496321 ], [ 3438638.357661829795688, 6505992.103592260740697 ], [ 3438645.007745639886707, 6505984.422236323356628 ], [ 3438651.790185912512243, 6505976.857492594048381 ], [ 3438658.702938152011484, 6505969.411641386337578 ], [ 3438665.74391858279705, 6505962.086927173659205 ], [ 3438672.911004775669426, 6505954.885557912290096 ], [ 3438680.202036288101226, 6505947.809704380109906 ], [ 3438687.614815316163003, 6505940.861499517224729 ], [ 3438695.147107356227934, 6505934.043037788011134 ], [ 3438702.796641877386719, 6505927.356374544091523 ], [ 3438710.561113009694964, 6505920.803525410592556 ], [ 3438718.438180234283209, 6505914.386465673334897 ], [ 3438726.425469093490392, 6505908.107129688374698 ], [ 3438734.520571902859956, 6505901.967410294339061 ], [ 3438742.721048479434103, 6505895.969158245250583 ], [ 3438751.024426876567304, 6505890.114181650802493 ], [ 3438759.428204128053039, 6505884.404245430603623 ], [ 3438767.929847004823387, 6505878.841070786118507 ], [ 3438776.526792776305228, 6505873.426334676332772 ], [ 3438785.216449983417988, 6505868.161669316701591 ], [ 3438793.996199221815914, 6505863.048661685548723 ], [ 3438802.863393928855658, 6505858.088853043504059 ], [ 3438811.815361181739718, 6505853.283738473430276 ], [ 3438820.849402505438775, 6505848.634766426868737 ], [ 3438829.962794682942331, 6505844.143338285386562 ], [ 3438839.152790579013526, 6505839.810807944275439 ], [ 3438848.416619966737926, 6505835.638481398113072 ], [ 3438857.751490362454206, 6505831.627616350539029 ], [ 3438867.154587868135422, 6505827.779421835206449 ], [ 3438876.623078019358218, 6505824.095057848840952 ], [ 3438886.154106640256941, 6505820.575635004788637 ], [ 3438895.744800703134388, 6505817.222214194945991 ], [ 3438905.392269194126129, 6505814.035806273110211 ], [ 3438915.093603986315429, 6505811.017371748574078 ], [ 3438924.845880714710802, 6505808.167820495553315 ], [ 3438934.646159658674151, 6505805.488011481240392 ], [ 3438944.491486627608538, 6505802.978752506896853 ], [ 3438954.378893852233887, 6505800.640799961052835 ], [ 3438964.305400877725333, 6505798.474858595058322 ], [ 3438974.268015463836491, 6505796.481581309810281 ], [ 3438984.263734485954046, 6505794.661568955518305 ], [ 3438994.289544839411974, 6505793.015370157547295 ], [ 3439004.342424350790679, 6505791.543481145054102 ], [ 3439014.419342685025185, 6505790.24634560290724 ], [ 3439024.517262261826545, 6505789.12435453850776 ], [ 3439034.633139170240611, 6505788.177846165373921 ], [ 3439044.763924086466432, 6505787.407105796970427 ], [ 3439054.906563192140311, 6505786.812365766614676 ], [ 3439065.057999095879495, 6505786.39380535017699 ], [ 3439075.21517175482586, 6505786.151550720445812 ], [ 3439085.375019396655262, 6505786.085674900561571 ], [ 3439095.534479442983866, 6505786.196197750046849 ], [ 3439105.6904894313775, 6505786.483085951767862 ], [ 3439115.839987941086292, 6505786.946253025904298 ], [ 3439125.979915511794388, 6505787.585559356957674 ], [ 3439136.107215570751578, 6505788.400812231935561 ], [ 3439146.218835349660367, 6505789.391765900887549 ], [ 3439156.311726808082312, 6505790.558121653273702 ], [ 3439166.382847550325096, 6505791.899527901783586 ], [ 3439176.429161743726581, 6505793.41558029409498 ], [ 3439186.447641033213586, 6505795.105821832083166 ], [ 3439196.435265453997999, 6505796.96974301058799 ], [ 3439206.389024342410266, 6505799.006781971082091 ], [ 3439216.305917242541909, 6505801.216324668377638 ], [ 3439226.182954812888056, 6505803.597705059684813 ], [ 3439236.017159724142402, 6505806.150205302983522 ], [ 3439245.805567559786141, 6505808.873055974021554 ], [ 3439255.545227706898004, 6505811.765436298213899 ], [ 3439265.233204249292612, 6505814.82647439930588 ], [ 3439274.866576847620308, 6505818.055247557349503 ], [ 3439284.442441624123603, 6505821.450782495550811 ], [ 3439293.957912035286427, 6505825.012055663391948 ], [ 3439303.41011974401772, 6505828.737993554212153 ], [ 3439312.796215481124818, 6505832.627473022788763 ], [ 3439322.113369908183813, 6505836.679321627132595 ], [ 3439331.358774467371404, 6505840.892317980527878 ], [ 3439340.529642228968441, 6505845.265192118473351 ], [ 3439349.623208731878549, 6505849.796625886112452 ], [ 3439358.636732817161828, 6505854.485253329388797 ], [ 3439367.567497452255338, 6505859.329661110416055 ], [ 3439376.412810553796589, 6505864.328388935886323 ], [ 3439385.170005795080215, 6505869.479929991066456 ], [ 3439393.83644341211766, 6505874.782731398008764 ], [ 3439402.409510998986661, 6505880.235194683074951 ], [ 3439410.886624295264482, 6505885.83567626029253 ], [ 3439419.265227964613587, 6505891.582487922161818 ], [ 3439427.542796365916729, 6505897.473897353745997 ], [ 3439435.716834313236177, 6505903.508128652349114 ], [ 3439443.784877829719335, 6505909.683362862095237 ], [ 3439451.744494888931513, 6505915.997738524340093 ], [ 3439459.593286147806793, 6505922.449352237395942 ], [ 3439467.328885672148317, 6505929.036259230226278 ], [ 3439474.948961646761745, 6505935.756473949179053 ], [ 3439482.451217080466449, 6505942.607970656827092 ], [ 3439489.833390497602522, 6505949.588684042915702 ], [ 3439497.093256619758904, 6505956.696509843692183 ], [ 3439504.228627037722617, 6505963.929305480793118 ], [ 3439511.237350869458169, 6505971.284890704788268 ], [ 3439518.11731540877372, 6505978.761048251762986 ], [ 3439524.866446763277054, 6505986.355524512939155 ], [ 3439531.482710479293019, 6505994.06603021454066 ], [ 3439537.964112153276801, 6506001.890241106040776 ], [ 3439544.308698035310954, 6506009.825798661448061 ], [ 3439550.514555617701262, 6506017.870310790836811 ], [ 3439556.579814209602773, 6506026.021352561190724 ], [ 3439562.502645503263921, 6506034.276466926559806 ], [ 3439568.281264124438167, 6506042.633165471255779 ], [ 3439573.913928168360144, 6506051.088929156772792 ], [ 3439579.398939729202539, 6506059.641209080815315 ], [ 3439584.734645407181233, 6506068.2874272512272 ], [ 3439589.919436811003834, 6506077.024977355264127 ], [ 3439594.951751040294766, 6506085.851225552149117 ], [ 3439599.830071156378835, 6506094.76351126190275 ], [ 3439604.552926641888916, 6506103.759147970937192 ], [ 3439609.118893841281533, 6506112.83542403858155 ], [ 3439613.526596392970532, 6506121.989603518508375 ], [ 3439617.774705640971661, 6506131.218926979228854 ], [ 3439621.86194103769958, 6506140.520612339489162 ], [ 3439625.787070529535413, 6506149.891855704598129 ], [ 3439629.548910927493125, 6506159.329832212068141 ], [ 3439633.146328264847398, 6506168.831696882843971 ], [ 3439636.578238137532026, 6506178.394585481844842 ], [ 3439639.843606033362448, 6506188.015615376643836 ], [ 3439642.941447641700506, 6506197.691886410117149 ], [ 3439645.870829150080681, 6506207.420481771230698 ], [ 3439647.340331026818603, 6506214.688811217434704 ], [ 3439648.683251061942428, 6506221.981589458882809 ], [ 3439649.899183344095945, 6506229.296612178906798 ], [ 3439650.98776034405455, 6506236.63166833575815 ], [ 3439651.948653029743582, 6506243.984540832228959 ], [ 3439652.781570959836245, 6506251.353007187135518 ], [ 3439653.486262377351522, 6506258.734840205870569 ], [ 3439654.062514281831682, 6506266.12780865188688 ], [ 3439654.510152495000511, 6506273.529677924700081 ], [ 3439654.829041713383049, 6506280.938210733234882 ], [ 3439655.019085549749434, 6506288.351167771033943 ], [ 3439655.080226561520249, 6506295.766308395192027 ], [ 3439655.012446267995983, 6506303.181391303427517 ], [ 3439654.815765156410635, 6506310.594175210222602 ], [ 3439654.490242675412446, 6506318.002419524826109 ], [ 3439654.035977217834443, 6506325.403885028325021 ], [ 3439653.453106090426445, 6506332.796334551647305 ], [ 3439652.741805471479893, 6506340.177533649839461 ], [ 3439651.902290359139442, 6506347.545251280069351 ], [ 3439650.934814505744725, 6506354.897260474041104 ], [ 3439649.839670340530574, 6506362.231339008547366 ], [ 3439648.617188882548362, 6506369.545270085334778 ], [ 3439647.267739639151841, 6506376.836842991411686 ], [ 3439645.791730495169759, 6506384.103853773325682 ], [ 3439644.189607589971274, 6506391.344105903059244 ], [ 3439642.461855181492865, 6506398.555410939268768 ], [ 3439640.608995500952005, 6506405.735589189454913 ], [ 3439638.631588594522327, 6506412.882470372132957 ], [ 3439636.530232153367251, 6506419.99389426689595 ], [ 3439634.305561334826052, 6506427.067711372859776 ], [ 3439631.958248568233103, 6506434.101783555932343 ], [ 3439629.489003353286535, 6506441.093984696082771 ], [ 3439626.898572044912726, 6506448.042201326228678 ], [ 3439624.187737627420574, 6506454.944333276711404 ], [ 3439621.357319478876889, 6506461.798294307664037 ], [ 3439618.408173122443259, 6506468.60201273765415 ], [ 3439615.341189967934042, 6506475.353432072326541 ], [ 3439612.157297043129802, 6506482.050511625595391 ], [ 3439608.857456712052226, 6506488.691227136179805 ], [ 3439605.442666385788471, 6506495.273571379482746 ], [ 3439601.913958220276982, 6506501.795554772950709 ], [ 3439598.272398803383112, 6506508.255205980502069 ], [ 3439594.519088834989816, 6506514.650572504848242 ], [ 3439590.6551627907902, 6506520.979721280746162 ], [ 3439586.681788583286107, 6506527.240739258006215 ], [ 3439582.600167205557227, 6506533.431733978912234 ], [ 3439578.411532369907945, 6506539.550834150984883 ], [ 3439574.117150134406984, 6506545.596190214157104 ], [ 3439569.718318520579487, 6506551.565974894911051 ], [ 3439565.216367120854557, 6506557.45838376507163 ], [ 3439560.61265669669956, 6506563.271635783836246 ], [ 3439555.908578766509891, 6506569.003973835147917 ], [ 3439551.105555187445134, 6506574.653665261343122 ], [ 3439546.205037722364068, 6506580.219002382829785 ], [ 3439541.208507603500038, 6506585.698303020559251 ], [ 3439536.117475084029138, 6506591.089910998940468 ], [ 3439530.933478980790824, 6506596.392196647822857 ], [ 3439525.658086210489273, 6506601.603557297959924 ], [ 3439520.292891314718872, 6506606.722417760640383 ], [ 3439514.839515979867429, 6506611.747230807319283 ], [ 3439509.299608543980867, 6506616.676477637141943 ], [ 3439503.674843502696604, 6506621.50866833422333 ], [ 3439497.966920997947454, 6506626.242342318408191 ], [ 3439492.177566309459507, 6506630.876068787649274 ], [ 3439486.30852932902053, 6506635.408447151072323 ], [ 3439480.361584033817053, 6506639.838107449933887 ], [ 3439474.338527949526906, 6506644.16371077299118 ], [ 3439468.241181606892496, 6506648.383949662558734 ], [ 3439462.07138799270615, 6506652.497548508457839 ], [ 3439455.831011990085244, 6506656.503263931721449 ], [ 3439449.521939817816019, 6506660.399885163642466 ], [ 3439443.146078457590193, 6506664.186234410852194 ], [ 3439436.705355079844594, 6506667.861167209222913 ], [ 3439430.201716459356248, 6506671.423572773113847 ], [ 3439423.637128388974816, 6506674.872374328784645 ], [ 3439417.013575082179159, 6506678.206529438495636 ], [ 3439410.333058577496558, 6506681.42503032181412 ], [ 3439403.597598129883409, 6506684.526904152706265 ], [ 3439396.809229601174593, 6506687.511213356629014 ], [ 3439389.970004846807569, 6506690.377055896446109 ], [ 3439383.081991092767566, 6506693.123565541580319 ], [ 3439376.147270312998444, 6506695.749912130646408 ], [ 3439369.167938597500324, 6506698.255301823839545 ], [ 3439362.146105522289872, 6506700.638977340422571 ], [ 3439355.083893508650362, 6506702.900218189693987 ], [ 3439347.983437183313072, 6506705.038340889848769 ], [ 3439340.846882733050734, 6506707.052699169144034 ], [ 3439333.676387254148722, 6506708.942684167996049 ], [ 3439326.474118104204535, 6506710.707724618725479 ], [ 3439319.24225224275142, 6506712.347287020646036 ], [ 3439311.982975576538593, 6506713.86087579652667 ], [ 3439304.698482296429574, 6506715.248033450916409 ], [ 3439297.390974216163158, 6506716.508340700529516 ], [ 3439290.062660105526447, 6506717.641416603699327 ], [ 3439282.71575502352789, 6506718.646918677724898 ], [ 3439275.35247964784503, 6506719.524542997591197 ], [ 3439267.975059604737908, 6506720.274024292826653 ], [ 3439260.585724795702845, 6506720.895136026665568 ], [ 3439253.186708723660558, 6506721.387690459378064 ], [ 3439245.780247817747295, 6506721.751538711600006 ], [ 3439238.36858075670898, 6506721.986570808105171 ], [ 3439230.953947794623673, 6506722.092715706676245 ], [ 3439223.538590080104768, 6506722.069941324181855 ], [ 3439216.124748982023448, 6506721.91825454402715 ], [ 3439208.714665411040187, 6506721.6377012161538 ], [ 3439201.310579140204936, 6506721.228366139344871 ], [ 3439193.914728132542223, 6506720.690373040735722 ], [ 3439186.529347859788686, 6506720.02388453297317 ], [ 3439179.156670629512519, 6506719.22910206951201 ], [ 3439171.798924909904599, 6506718.306265883147717 ], [ 3439164.458334655035287, 6506717.255654907785356 ], [ 3439157.137118635233492, 6506716.077586703933775 ], [ 3439149.837489762809128, 6506714.772417354397476 ], [ 3439142.561654427088797, 6506713.340541359037161 ], [ 3439135.311811823397875, 6506711.782391517423093 ], [ 3439128.090153292287141, 6506710.098438797518611 ], [ 3439120.898861654102802, 6506708.289192190393806 ], [ 3439113.740110551938415, 6506706.355198559351265 ], [ 3439106.616063792258501, 6506704.297042476013303 ], [ 3439099.528874691110104, 6506702.115346036851406 ], [ 3439092.480685425456613, 6506699.810768683440983 ], [ 3439085.473626383114606, 6506697.384006997570395 ], [ 3439078.509815519675612, 6506694.835794493556023 ], [ 3439071.591357719618827, 6506692.166901394724846 ], [ 3439064.720344157889485, 6506689.378134401515126 ], [ 3439057.898851669859141, 6506686.47033644746989 ], [ 3439051.128942121751606, 6506683.444386444985867 ], [ 3439044.412661788985133, 6506680.301199018955231 ], [ 3439037.752040736842901, 6506677.041724229231477 ], [ 3439031.149092206731439, 6506673.666947287507355 ], [ 3439024.605812007561326, 6506670.177888252772391 ], [ 3439018.124177914578468, 6506666.575601731427014 ], [ 3439011.706149067729712, 6506662.861176550388336 ], [ 3439005.353665383066982, 6506659.035735432989895 ], [ 3438999.068646964151412, 6506655.100434659048915 ], [ 3438992.852993523236364, 6506651.056463713757694 ], [ 3438986.708583805244416, 6506646.905044929124415 ], [ 3438980.63727502245456, 6506642.647433114238083 ], [ 3438974.64090228965506, 6506638.284915177151561 ], [ 3438968.721278073266149, 6506633.818809731863439 ], [ 3438962.880191640928388, 6506629.250466707162559 ], [ 3438957.119408520869911, 6506624.581266931258142 ], [ 3438951.440669969655573, 6506619.812621718272567 ], [ 3438945.845692444592714, 6506614.945972438901663 ], [ 3438940.336167085915804, 6506609.982790091075003 ], [ 3438934.913759204093367, 6506604.924574845470488 ], [ 3438929.580107778310776, 6506599.772855601273477 ], [ 3438924.336824959609658, 6506594.529189517721534 ], [ 3438919.185495585203171, 6506589.195161548443139 ], [ 3438914.127676696516573, 6506583.772383958101273 ], [ 3438909.164897072128952, 6506578.262495837174356 ], [ 3438904.298656763508916, 6506572.667162606492639 ], [ 3438899.530426642391831, 6506566.988075513392687 ], [ 3438894.861647955141962, 6506561.226951119489968 ], [ 3438890.293731888290495, 6506555.385530786588788 ], [ 3438885.828059142455459, 6506549.465580142103136 ], [ 3438881.465979512780905, 6506543.468888552859426 ], [ 3438877.208811483345926, 6506537.397268582135439 ], [ 3438873.057841826695949, 6506531.252555439248681 ], [ 3438869.014325216878206, 6506525.036606426350772 ], [ 3438865.079483848065138, 6506518.751300378702581 ], [ 3438861.254507067147642, 6506512.398537095636129 ], [ 3438857.540551012381911, 6506505.980236764997244 ], [ 3438853.938738266471773, 6506499.498339385725558 ], [ 3438850.450157513376325, 6506492.954804176464677 ], [ 3438847.075863213278353, 6506486.351608988828957 ], [ 3438843.816875281278044, 6506479.690749707631767 ], [ 3438840.674178780522197, 6506472.974239645525813 ], [ 3438837.64872362324968, 6506466.204108938574791 ], [ 3438834.741424284875393, 6506459.382403926923871 ], [ 3438831.953159526456147, 6506452.511186542920768 ], [ 3438829.28477212972939, 6506445.592533682473004 ], [ 3438826.73706864239648, 6506438.628536579199135 ], [ 3438824.310819134116173, 6506431.621300174854696 ], [ 3438822.00675696413964, 6506424.572942478582263 ], [ 3438819.825578559190035, 6506417.485593928024173 ], [ 3438817.767943202983588, 6506410.361396749503911 ], [ 3438815.834472836460918, 6506403.202504303306341 ], [ 3438814.025751871522516, 6506396.011080441065133 ], [ 3438812.342327013146132, 6506388.789298842661083 ], [ 3438810.784707093145698, 6506381.539342368021607 ], [ 3438809.353362918365747, 6506374.263402390293777 ], [ 3438808.048727127723396, 6506366.963678137399256 ], [ 3438806.871194060891867, 6506359.642376028001308 ], [ 3438805.821119639556855, 6506352.301709 ], [ 3438804.898821258917451, 6506344.943895846605301 ], [ 3438804.104577693622559, 6506337.571160542778671 ], [ 3438803.438629011623561, 6506330.185731573961675 ], [ 3438802.901176503393799, 6506322.789841261692345 ], [ 3438802.492382619529963, 6506315.385725091211498 ], [ 3438802.212370921857655, 6506307.975621032528579 ], [ 3438802.061226046644151, 6506300.561768867075443 ], [ 3438802.038993678987026, 6506293.146409507840872 ], [ 3438802.145680539309978, 6506285.731784324161708 ], [ 3438802.381254380568862, 6506278.320134462788701 ], [ 3438802.745643997099251, 6506270.913700171746314 ], [ 3438803.238739249296486, 6506263.514720121398568 ], [ 3438803.860391093883663, 6506256.125430732034147 ], [ 3438804.610411630012095, 6506248.748065490275621 ], [ 3438805.488574156071991, 6506241.384854283183813 ], [ 3438806.494613238144666, 6506234.038022716529667 ], [ 3438807.628224791493267, 6506226.709791446104646 ], [ 3438808.889066169504076, 6506219.402375506237149 ], [ 3438810.276756269857287, 6506212.11798363737762 ], [ 3438811.79087564907968, 6506204.858817623928189 ], [ 3438813.430966648738831, 6506197.627071623690426 ], [ 3438921.514456512406468, 6505903.555614397861063 ], [ 3439034.276672546751797, 6505611.246282744221389 ], [ 3439151.688900880981237, 6505320.773510571569204 ], [ 3439273.721243561245501, 6505032.211264121346176 ], [ 3439276.167449839413166, 6505027.540998279117048 ], [ 3439278.532077751588076, 6505022.828902882523835 ], [ 3439280.814412280917168, 6505018.076402773149312 ], [ 3439283.013763295486569, 6505013.284935011528432 ], [ 3439285.1294657564722, 6505008.455948442220688 ], [ 3439287.160879917442799, 6505003.590903252363205 ], [ 3439289.107391520403326, 6504998.691270534880459 ], [ 3439290.968411978334188, 6504993.758531837724149 ], [ 3439292.743378557264805, 6504988.79417872428894 ], [ 3439294.431754542049021, 6504983.799712314270437 ], [ 3439296.033029402606189, 6504978.776642832905054 ], [ 3439297.54671894479543, 6504973.726489155553281 ], [ 3439298.97236546035856, 6504968.650778347626328 ], [ 3439300.30953786149621, 6504963.551045201718807 ], [ 3439301.557831814978272, 6504958.428831773810089 ], [ 3439302.71686986181885, 6504953.285686919465661 ], [ 3439303.78630153182894, 6504948.123165820725262 ], [ 3439304.765803450252861, 6504942.942829520441592 ], [ 3439305.655079436022788, 6504937.746244448237121 ], [ 3439306.453860589768738, 6504932.534981946460903 ], [ 3439307.16190537577495, 6504927.31061779614538 ], [ 3439307.778999696020037, 6504922.074731740169227 ], [ 3439308.304956953972578, 6504916.82890700455755 ], [ 3439308.739618109539151, 6504911.574729821644723 ], [ 3439309.082851730752736, 6504906.313788948580623 ], [ 3439309.334554031025618, 6504901.047675187699497 ], [ 3439309.494648899883032, 6504895.777980905026197 ], [ 3439309.563087928108871, 6504890.506299551576376 ], [ 3439309.539850420784205, 6504885.234225177206099 ], [ 3439309.424943405669183, 6504879.963351950980723 ], [ 3439309.218401626683772, 6504874.6952736787498 ], [ 3439308.920287539251149, 6504869.431583320721984 ], [ 3439308.530691286548972, 6504864.173872511833906 ], [ 3439308.049730674363673, 6504858.923731077462435 ], [ 3439307.477551136165857, 6504853.682746554724872 ], [ 3439306.81432568654418, 6504848.452503710985184 ], [ 3439306.060254872776568, 6504843.234584068879485 ], [ 3439305.215566709637642, 6504838.030565419234335 ], [ 3439304.280516614206135, 6504832.842021354474127 ], [ 3439303.255387327168137, 6504827.670520785264671 ], [ 3439302.140488826204091, 6504822.517627470195293 ], [ 3439300.936158234719187, 6504817.384899538010359 ], [ 3439299.642759718000889, 6504812.273889024741948 ], [ 3439298.260684373788536, 6504807.186141395941377 ], [ 3439296.790350113064051, 6504802.123195084743202 ], [ 3439295.232201536651701, 6504797.08658102247864 ], [ 3439293.586709795985371, 6504792.077822182327509 ], [ 3439291.854372455738485, 6504787.098433109931648 ], [ 3439290.035713339224458, 6504782.149919473566115 ], [ 3439288.131282372400165, 6504777.233777604065835 ], [ 3439286.141655416693538, 6504772.351494043134153 ], [ 3439284.06743409531191, 6504767.50454509537667 ], [ 3439281.909245611634105, 6504762.694396380335093 ], [ 3439279.667742557823658, 6504757.922502390109003 ], [ 3439277.343602719251066, 6504753.190306049771607 ], [ 3439274.937528869137168, 6504748.499238279648125 ], [ 3439272.450248555745929, 6504743.850717565044761 ], [ 3439269.88251388259232, 6504739.246149525046349 ], [ 3439267.235101280733943, 6504734.686926486901939 ], [ 3439264.508811275009066, 6504730.174427068792284 ], [ 3439261.70446824003011, 6504725.710015760734677 ], [ 3439258.822920152917504, 6504721.295042508281767 ], [ 3439255.865038335788995, 6504716.930842312984169 ], [ 3439252.831717192661017, 6504712.618734819814563 ], [ 3439249.723873938899487, 6504708.36002392321825 ], [ 3439246.542448322754353, 6504704.155997371301055 ], [ 3439243.288402344565839, 6504700.007926378399134 ], [ 3439239.962719961535186, 6504695.917065237648785 ], [ 3439236.566406793426722, 6504691.884650941006839 ], [ 3439233.100489816628397, 6504687.911902811378241 ], [ 3439229.566017054952681, 6504684.00002212729305 ], [ 3439225.964057261589915, 6504680.15019176248461 ], [ 3439222.295699596870691, 6504676.363575827330351 ], [ 3439218.562053297646344, 6504672.64131932053715 ], [ 3439214.764247344341129, 6504668.984547775238752 ], [ 3439210.903430116828531, 6504665.394366926513612 ], [ 3439206.980769047979265, 6504661.871862372383475 ], [ 3439202.997450271621346, 6504658.418099247850478 ], [ 3439198.954678263515234, 6504655.034121901728213 ], [ 3439194.853675476741046, 6504651.720953579060733 ], [ 3439190.695681971032172, 6504648.479596116580069 ], [ 3439186.48195504071191, 6504645.311029635369778 ], [ 3439182.213768831454217, 6504642.216212245635688 ], [ 3439177.892413957044482, 6504639.196079757995903 ], [ 3439173.519197108224034, 6504636.251545399427414 ], [ 3439169.095440657809377, 6504633.383499538525939 ], [ 3439164.622482260689139, 6504630.592809414491057 ], [ 3439160.10167444916442, 6504627.880318875424564 ], [ 3439155.534384225029498, 6504625.246848125010729 ], [ 3439150.921992644201964, 6504622.693193469196558 ], [ 3439146.265894401352853, 6504620.220127084292471 ], [ 3439141.567497406620532, 6504617.828396774828434 ], [ 3439136.828222360927612, 6504615.518725751899183 ], [ 3439132.049502325709909, 6504613.291812413372099 ], [ 3439127.232782289851457, 6504611.148330133408308 ], [ 3439122.379518731497228, 6504609.088927057571709 ], [ 3439117.491179181262851, 6504607.114225908182561 ], [ 3439112.569241773337126, 6504605.224823794327676 ], [ 3439107.615194803103805, 6504603.421292033977807 ], [ 3439102.630536274984479, 6504601.704175978899002 ], [ 3439097.616773448418826, 6504600.073994849808514 ], [ 3439092.575422385241836, 6504598.531241580843925 ], [ 3439087.50800748821348, 6504597.076382669620216 ], [ 3439082.416061040945351, 6504595.709858036600053 ], [ 3439077.301122746430337, 6504594.432080890983343 ], [ 3439072.16473925858736, 6504593.243437605910003 ], [ 3439067.00846371660009, 6504592.14428760483861 ], [ 3439061.833855273667723, 6504591.134963247925043 ], [ 3439056.642478628084064, 6504590.215769734233618 ], [ 3439051.435903547331691, 6504589.386985009536147 ], [ 3439046.215704394970089, 6504588.648859681561589 ], [ 3439040.983459653798491, 6504588.001616944558918 ], [ 3439035.740751449484378, 6504587.445452511310577 ], [ 3439030.48916507139802, 6504586.9805345563218 ], [ 3439025.230288493447006, 6504586.607003659941256 ], [ 3439019.96571189397946, 6504586.324972770176828 ], [ 3439014.697027175221592, 6504586.134527169167995 ], [ 3439009.425827481318265, 6504586.03572444152087 ], [ 3439004.153706716839224, 6504586.02859446592629 ], [ 3438998.882259065285325, 6504586.113139395602047 ], [ 3438993.613078505266458, 6504586.289333667606115 ], [ 3438988.347758332267404, 6504586.557124003767967 ], [ 3438983.08789067203179, 6504586.916429430246353 ], [ 3438977.83506600279361, 6504587.367141298949718 ], [ 3438972.59087267331779, 6504587.909123324789107 ], [ 3438967.356896422337741, 6504588.542211623862386 ], [ 3438962.134719897992909, 6504589.266214760951698 ], [ 3438956.925922182388604, 6504590.080913814716041 ], [ 3438951.732078310102224, 6504590.986062434501946 ], [ 3438946.554758795537055, 6504591.981386922299862 ], [ 3438941.395529155619442, 6504593.066586311906576 ], [ 3438936.255949438083917, 6504594.241332461126149 ], [ 3438931.137573747429997, 6504595.505270150490105 ], [ 3438926.04194977786392, 6504596.858017190359533 ], [ 3438920.970618343446404, 6504598.299164537340403 ], [ 3438915.925112912897021, 6504599.828276417218149 ], [ 3438910.906959145329893, 6504601.444890457205474 ], [ 3438905.917674429249018, 6504603.148517827503383 ], [ 3438900.958767423871905, 6504604.93864338286221 ], [ 3438896.031737603247166, 6504606.814725827425718 ], [ 3438891.138074801769108, 6504608.77619787119329 ], [ 3438886.279258764814585, 6504610.822466404177248 ], [ 3438881.456758699845523, 6504612.952912675216794 ], [ 3438876.672032834030688, 6504615.166892481967807 ], [ 3438871.926527972333133, 6504617.463736359961331 ], [ 3438867.221679059788585, 6504619.842749790288508 ], [ 3438862.558908748440444, 6504622.303213407285511 ], [ 3438857.939626965206116, 6504624.844383217394352 ], [ 3438853.365230488590896, 6504627.465490819886327 ], [ 3438848.837102524004877, 6504630.165743647143245 ], [ 3438844.356612285599113, 6504632.944325194694102 ], [ 3438839.925114583689719, 6504635.800395276397467 ], [ 3438835.54394941451028, 6504638.733090274035931 ], [ 3438831.214441553689539, 6504641.741523399949074 ], [ 3438826.937900156714022, 6504644.824784964323044 ], [ 3438822.71561836451292, 6504647.981942651793361 ], [ 3438818.548872909974307, 6504651.212041799910367 ], [ 3438814.43892373284325, 6504654.514105692505836 ], [ 3438810.38701359834522, 6504657.887135852128267 ], [ 3438806.394367723725736, 6504661.330112341791391 ], [ 3438802.462193403858691, 6504664.841994075104594 ], [ 3438798.591679649427533, 6504668.421719130128622 ], [ 3438794.783996825572103, 6504672.068205069750547 ], [ 3438791.040296299383044, 6504675.780349269509315 ], [ 3438787.361710090190172, 6504679.557029252871871 ], [ 3438783.749350528232753, 6504683.397103026509285 ], [ 3438780.204309918917716, 6504687.299409430474043 ], [ 3438776.727660210803151, 6504691.262768484652042 ], [ 3438773.320452672429383, 6504695.285981751047075 ], [ 3438769.983717575203627, 6504699.367832689546049 ], [ 3438766.71846388047561, 6504703.50708703044802 ], [ 3438763.525678934995085, 6504707.702493147924542 ], [ 3438760.406328173354268, 6504711.952782433480024 ], [ 3438757.361354823689908, 6504716.256669687107205 ], [ 3438754.391679625026882, 6504720.612853500060737 ], [ 3438751.498200546950102, 6504725.020016647875309 ], [ 3438748.681792519986629, 6504729.476826495490968 ], [ 3438745.943307168316096, 6504733.981935392133892 ], [ 3438743.28357255551964, 6504738.533981084823608 ], [ 3438740.70339293172583, 6504743.131587124429643 ], [ 3438738.203548491001129, 6504747.773363289423287 ], [ 3438735.78479513572529, 6504752.45790599938482 ], [ 3438733.447864248882979, 6504757.183798742480576 ], [ 3438731.193462471012026, 6504761.949612504802644 ], [ 3438729.02227148739621, 6504766.753906199708581 ], [ 3438726.934947823174298, 6504771.595227104611695 ], [ 3438724.932122642640024, 6504776.472111304290593 ], [ 3438723.014401559717953, 6504781.383084123954177 ], [ 3438721.182364455424249, 6504786.326660586521029 ], [ 3438719.436565299518406, 6504791.30134585313499 ], [ 3438717.777531987521797, 6504796.305635678581893 ], [ 3438716.205766177736223, 6504801.338016867637634 ], [ 3438714.721743139903992, 6504806.396967728622258 ], [ 3438713.325911613181233, 6504811.480958537198603 ], [ 3438712.018693668302149, 6504816.588451996445656 ], [ 3438710.800484582781792, 6504821.717903703451157 ], [ 3438709.671652717515826, 6504826.867762615904212 ], [ 3438708.632539408747107, 6504832.036471518687904 ], [ 3438707.683458863291889, 6504837.222467498853803 ], [ 3438706.824698064941913, 6504842.42418241687119 ], [ 3438706.05651668459177, 6504847.640043376944959 ], [ 3438705.379147005267441, 6504852.868473209440708 ], [ 3438704.792793849483132, 6504858.107890941202641 ], [ 3438704.297634519636631, 6504863.356712277978659 ], [ 3438703.893818740732968, 6504868.613350083120167 ], [ 3438703.581468619406223, 6504873.876214853487909 ], [ 3438703.360678603406996, 6504879.143715205602348 ], [ 3438703.23151545599103, 6504884.414258353412151 ], [ 3438703.194018232636154, 6504889.686250590719283 ], [ 3438703.248198272660375, 6504894.958097773604095 ], [ 3438703.39403919223696, 6504900.22820580098778 ], [ 3438703.631496892310679, 6504905.494981097988784 ], [ 3438703.960499570704997, 6504910.756831098347902 ], [ 3438704.380947743076831, 6504916.012164724990726 ], [ 3438704.892714275047183, 6504921.259392870590091 ], [ 3438705.495644418057054, 6504926.496928878128529 ], [ 3438706.189555858727545, 6504931.723189023323357 ], [ 3438706.974238771945238, 6504936.936592990532517 ], [ 3438707.849455885589123, 6504942.135564349591732 ], [ 3438708.814942551311105, 6504947.318531037308276 ], [ 3438709.870406825561076, 6504952.483925829641521 ], [ 3438711.015529557596892, 6504957.630186813883483 ], [ 3438712.249964484479278, 6504962.75575786549598 ], [ 3438713.573338338173926, 6504967.859089114703238 ], [ 3438714.985250957775861, 6504972.938637415878475 ], [ 3438716.485275408718735, 6504977.992866816930473 ], [ 3438718.072958114091307, 6504983.020249020308256 ], [ 3438719.747818990144879, 6504988.019263846799731 ], [ 3438721.509351593442261, 6504992.98839969560504 ], [ 3438723.357023271266371, 6504997.926153999753296 ], [ 3438725.290275325067341, 6505002.831033680588007 ], [ 3438744.877095619216561, 6506393.495274565182626 ], [ 3438759.87349513405934, 6506716.463631158694625 ], [ 3438769.770431993063539, 6507039.628452882170677 ], [ 3438774.565440505743027, 6507362.9092275230214 ], [ 3438774.257326060440391, 6507686.225413979031146 ], [ 3438773.489812862128019, 6507693.541653720661998 ], [ 3438772.849817456677556, 6507700.870149224065244 ], [ 3438772.337533924728632, 6507708.208678099326789 ], [ 3438771.953117617871612, 6507715.555014912039042 ], [ 3438771.696685112081468, 6507722.906931862235069 ], [ 3438771.568314170930535, 6507730.262199454940856 ], [ 3438771.568043723702431, 6507737.618587181903422 ], [ 3438771.695873852353543, 6507744.973864194005728 ], [ 3438771.951765791513026, 6507752.325799979269505 ], [ 3438772.335641941521317, 6507759.6721650371328 ], [ 3438772.847385890781879, 6507767.010731559246778 ], [ 3438773.486842450685799, 6507774.339274100027978 ], [ 3438774.253817704506218, 6507781.655570254661143 ], [ 3438775.148079064209014, 6507788.957401332445443 ], [ 3438776.169355342164636, 6507796.242553028278053 ], [ 3438777.31733683263883, 6507803.508816096000373 ], [ 3438778.591675406321883, 6507810.753987016156316 ], [ 3438779.991984616033733, 6507817.975868667475879 ], [ 3438781.517839813604951, 6507825.172270989045501 ], [ 3438783.168778277933598, 6507832.341011648997664 ], [ 3438784.944299356546253, 6507839.479916702955961 ], [ 3438786.843864616937935, 6507846.586821253411472 ], [ 3438788.86689800908789, 6507853.659570108167827 ], [ 3438791.012786041945219, 6507860.69601843226701 ], [ 3438793.280877967830747, 6507867.694032398983836 ], [ 3438795.670485979411751, 6507874.651489838026464 ], [ 3438798.18088542111218, 6507881.56628087721765 ], [ 3438800.811315005645156, 6507888.436308582313359 ], [ 3438803.560977045912296, 6507895.2594895940274 ], [ 3438806.429037698078901, 6507902.033754762262106 ], [ 3438809.414627213496715, 6507908.757049766369164 ], [ 3438812.516840201802552, 6507915.427335744723678 ], [ 3438815.734735907055438, 6507922.042589912191033 ], [ 3438819.067338490858674, 6507928.600806170143187 ], [ 3438822.513637330848724, 6507935.099995717406273 ], [ 3438826.072587325237691, 6507941.538187652826309 ], [ 3438829.743109210859984, 6507947.913429574109614 ], [ 3438833.524089889135212, 6507954.223788167349994 ], [ 3438837.414382765535265, 6507960.467349795624614 ], [ 3438841.412808095570654, 6507966.642221077345312 ], [ 3438845.518153343815356, 6507972.746529462747276 ], [ 3438849.729173549916595, 6507978.778423799201846 ], [ 3438854.044591708108783, 6507984.736074895597994 ], [ 3438858.463099153712392, 6507990.617676073685288 ], [ 3438862.983355959877372, 6507996.421443718485534 ], [ 3438867.603991342708468, 6508002.145617817528546 ], [ 3438872.323604079894722, 6508007.788462497293949 ], [ 3438877.140762933064252, 6508013.348266545683146 ], [ 3438882.054007082246244, 6508018.823343932628632 ], [ 3438887.061846570111811, 6508024.212034323252738 ], [ 3438892.162762752734125, 6508029.512703579850495 ], [ 3438897.355208759661764, 6508034.723744256421924 ], [ 3438902.637609964702278, 6508039.843576086685061 ], [ 3438908.008364462293684, 6508044.870646465569735 ], [ 3438913.465843553189188, 6508049.80343091674149 ], [ 3438919.00839223805815, 6508054.640433556400239 ], [ 3438924.634329721331596, 6508059.380187548696995 ], [ 3438930.341949917841703, 6508064.021255545318127 ], [ 3438936.12952197343111, 6508068.562230129726231 ], [ 3438941.995290786959231, 6508073.00173423346132 ], [ 3438947.937477544881403, 6508077.338421563617885 ], [ 3438953.95428025862202, 6508081.570977005176246 ], [ 3438960.043874313589185, 6508085.698117021471262 ], [ 3438966.204413019586354, 6508089.718590043485165 ], [ 3438972.43402817286551, 6508093.631176848895848 ], [ 3438978.730830621439964, 6508097.434690932743251 ], [ 3438985.092910839244723, 6508101.127978867851198 ], [ 3438991.518339504022151, 6508104.709920650348067 ], [ 3438998.005168083589524, 6508108.179430047050118 ], [ 3439004.551429424900562, 6508111.535454914905131 ], [ 3439011.155138352420181, 6508114.776977529749274 ], [ 3439017.81429226975888, 6508117.903014888986945 ], [ 3439024.526871766429394, 6508120.912619011476636 ], [ 3439031.290841229725629, 6508123.804877223446965 ], [ 3439038.104149463120848, 6508126.578912438824773 ], [ 3439044.964730308856815, 6508129.233883422799408 ], [ 3439051.870503272861242, 6508131.768985046073794 ], [ 3439058.819374156184494, 6508134.183448529802263 ], [ 3439065.809235690161586, 6508136.476541680283844 ], [ 3439072.83796817669645, 6508138.647569110617042 ], [ 3439079.903440128546208, 6508140.695872447453439 ], [ 3439087.003508917987347, 6508142.620830537751317 ], [ 3439094.136021425947547, 6508144.421859631314874 ], [ 3439101.298814693465829, 6508146.098413558676839 ], [ 3439108.489716579671949, 6508147.649983899667859 ], [ 3439115.706546420231462, 6508149.076100137084723 ], [ 3439122.9471156867221, 6508150.3763297945261 ], [ 3439130.209228652529418, 6508151.550278574228287 ], [ 3439137.490683057811111, 6508152.597590470686555 ], [ 3439144.789270777255297, 6508153.517947885207832 ], [ 3439152.10277848970145, 6508154.311071714386344 ], [ 3439159.428988349158317, 6508154.976721442304552 ], [ 3439166.765678658150136, 6508155.514695207588375 ], [ 3439174.110624541528523, 6508155.924829868599772 ], [ 3439181.461598618887365, 6508156.207001050002873 ], [ 3439188.816371683962643, 6508156.36112318187952 ], [ 3439196.172713376116008, 6508156.387149527668953 ], [ 3439203.528392861131579, 6508156.285072194412351 ], [ 3439210.881179504096508, 6508156.054922136478126 ], [ 3439218.228843547869474, 6508155.696769148111343 ], [ 3439225.56915678922087, 6508155.210721840150654 ], [ 3439232.89989325357601, 6508154.59692760836333 ], [ 3439240.218829870223999, 6508153.855572588741779 ], [ 3439247.523747147526592, 6508152.986881597898901 ], [ 3439254.812429845333099, 6508151.991118070669472 ], [ 3439262.082667645066977, 6508150.868583975359797 ], [ 3439269.33225582446903, 6508149.619619724340737 ], [ 3439276.558995920233428, 6508148.24460406973958 ], [ 3439283.760696400422603, 6508146.743953989818692 ], [ 3439290.935173324309289, 6508145.11812456138432 ], [ 3439298.080251008737832, 6508143.367608822882175 ], [ 3439305.193762684706599, 6508141.492937624454498 ], [ 3439312.273551155813038, 6508139.494679465889931 ], [ 3439319.317469452973455, 6508137.373440325260162 ], [ 3439326.323381484486163, 6508135.129863477312028 ], [ 3439333.289162683766335, 6508132.764629292301834 ], [ 3439340.212700654286891, 6508130.278455035760999 ], [ 3439347.091895810794085, 6508127.672094648703933 ], [ 3439353.924662013538182, 6508124.946338517591357 ], [ 3439360.708927203901112, 6508122.102013238705695 ], [ 3439367.442634030710906, 6508119.139981362968683 ], [ 3439374.123740475159138, 6508116.061141135171056 ], [ 3439380.75022046873346, 6508112.866426224820316 ], [ 3439387.320064509753138, 6508109.556805439293385 ], [ 3439393.831280271057039, 6508106.133282433263958 ], [ 3439400.281893204897642, 6508102.596895400434732 ], [ 3439406.669947140850127, 6508098.948716761544347 ], [ 3439412.993504880461842, 6508095.189852840267122 ], [ 3439419.250648783985525, 6508091.321443524211645 ], [ 3439425.439481351524591, 6508087.344661921262741 ], [ 3439431.558125798590481, 6508083.260714003816247 ], [ 3439437.604726626072079, 6508079.070838241837919 ], [ 3439443.577450182288885, 6508074.776305230334401 ], [ 3439449.474485218990594, 6508070.378417300991714 ], [ 3439455.29404343990609, 6508065.878508126363158 ], [ 3439461.034360045567155, 6508061.277942320331931 ], [ 3439466.693694265093654, 6508056.57811501994729 ], [ 3439472.270329886581749, 6508051.780451461672783 ], [ 3439477.762575776781887, 6508046.886406555771828 ], [ 3439483.168766393791884, 6508041.89746443554759 ], [ 3439488.487262291833758, 6508036.815138014964759 ], [ 3439493.716450620442629, 6508031.64096852671355 ], [ 3439498.854745609685779, 6508026.376525054685771 ], [ 3439503.900589054450393, 6508021.023404059000313 ], [ 3439508.852450786624104, 6508015.583228891715407 ], [ 3439513.70882913749665, 6508010.057649303227663 ], [ 3439518.468251393642277, 6508004.448340945877135 ], [ 3439523.12927424442023, 6507998.757004858925939 ], [ 3439527.690484219230711, 6507992.985366960987449 ], [ 3439532.150498115923256, 6507987.135177518241107 ], [ 3439536.507963420357555, 6507981.208210622891784 ], [ 3439540.761558717116714, 6507975.206263645552099 ], [ 3439544.909994088578969, 6507969.131156696937978 ], [ 3439548.952011507935822, 6507962.98473207373172 ], [ 3439552.886385220568627, 6507956.768853699788451 ], [ 3439556.711922113783658, 6507950.485406561754644 ], [ 3439560.427462080959231, 6507944.136296134442091 ], [ 3439564.031878372188658, 6507937.723447807133198 ], [ 3439567.524077936075628, 6507931.248806297779083 ], [ 3439570.903001751750708, 6507924.71433506347239 ], [ 3439574.167625149246305, 6507918.122015704400837 ], [ 3439577.316958120558411, 6507911.473847362212837 ], [ 3439582.867564967367798, 6507898.6306520299986 ], [ 3439588.198238645680249, 6507885.69462401419878 ], [ 3439593.307427296880633, 6507872.669529234059155 ], [ 3439598.193643540143967, 6507859.55915953963995 ], [ 3439602.855464905966073, 6507846.367331605404615 ], [ 3439607.291534251067787, 6507833.09788582008332 ], [ 3439611.500560152344406, 6507819.754685167223215 ], [ 3439615.481317283585668, 6507806.341614102944732 ], [ 3439619.232646771706641, 6507792.862577425315976 ], [ 3439622.753456533886492, 6507779.321499132551253 ], [ 3439626.042721597012132, 6507765.722321287728846 ], [ 3439629.099484393838793, 6507752.069002867676318 ], [ 3439631.922855043318123, 6507738.365518607199192 ], [ 3439634.512011609971523, 6507724.615857848897576 ], [ 3439636.866200341377407, 6507710.824023376218975 ], [ 3439638.984735888894647, 6507696.994030251167715 ], [ 3439640.867001507431269, 6507683.129904644563794 ], [ 3439642.512449233792722, 6507669.235682662576437 ], [ 3439643.920600047335029, 6507655.315409174188972 ], [ 3439645.091044009197503, 6507641.373136632144451 ], [ 3439646.023440380580723, 6507627.412923893891275 ], [ 3439646.717517724726349, 6507613.438835038803518 ], [ 3439647.173073981422931, 6507599.454938185401261 ], [ 3439647.389976529870182, 6507585.465304309502244 ], [ 3439647.368162226397544, 6507571.474006055854261 ], [ 3439647.10763742076233, 6507557.485116552561522 ], [ 3439646.60847795708105, 6507543.502708229236305 ], [ 3439645.870829150080681, 6507529.530851625837386 ], [ 3439634.384333916939795, 6507235.852665518410504 ], [ 3439627.854774106293917, 6506942.022474052384496 ], [ 3439626.284008855931461, 6506648.123938389122486 ] ] ] } }
]
}
